[{"OBJECT_NAME":"UMBRA-07","OBJECT_ID":"2023-174AT","EPOCH":"2026-03-09T17:14:20.565312","MEAN_MOTION":15.07174057,"ECCENTRICITY":0.00041314,"INCLINATION":97.3902,"RA_OF_ASC_NODE":128.3323,"ARG_OF_PERICENTER":75.5473,"MEAN_ANOMALY":284.6213,"EPHEMERIS_TYPE":0,"CLASSIFICATION_TYPE":"U","NORAD_CAT_ID":58297,"ELEMENT_SET_NO":999,"REV_AT_EPOCH":12842,"BSTAR":0.0008461425,"MEAN_MOTION_DOT":0.00012685,"MEAN_MOTION_DDOT":0},{"OBJECT_NAME":"STARLINK-35050","OBJECT_ID":"2025-194G","EPOCH":"2026-03-09T13:39:55.551744","MEAN_MOTION":15.05673487,"ECCENTRICITY":0.0001438,"INCLINATION":97.6015,"RA_OF_ASC_NODE":284.3372,"ARG_OF_PERICENTER":68.2557,"MEAN_ANOMALY":291.8822,"EPHEMERIS_TYPE":0,"CLASSIFICATION_TYPE":"U","NORAD_CAT_ID":65440,"ELEMENT_SET_NO":999,"REV_AT_EPOCH":2963,"BSTAR":0.00079353,"MEAN_MOTION_DOT":0.00011415,"MEAN_MOTION_DDOT":0}]
