UMBRA-07                
1 58297U 23174AT  26068.71829358  .00012685  00000+0  84614-3 0  9990
2 58297  97.3902 128.3323 0004131  75.5473 284.6213 15.07174057128425
STARLINK-35050          
1 65440U 25194G   26068.56939296  .00011415  00000+0  79353-3 0  9992
2 65440  97.6015 284.3372 0001438  68.2557 291.8822 15.05673487 29635
